{
    "links": {
        "self": "http://www.neowsapp.com/rest/v1/neo/54054726?api_key=iIulBulltgU6a56xZRHN4H3l9WmuAYTsLGpBGhQ2"
    },
    "id": "54054726",
    "neo_reference_id": "54054726",
    "name": "(2020 SA7)",
    "designation": "2020 SA7",
    "nasa_jpl_url": "http://ssd.jpl.nasa.gov/sbdb.cgi?sstr=54054726",
    "absolute_magnitude_h": 25.044,
    "estimated_diameter": {
        "kilometers": {
            "estimated_diameter_min": 0.0260468361,
            "estimated_diameter_max": 0.058242496
        },
        "meters": {
            "estimated_diameter_min": 26.0468360619,
            "estimated_diameter_max": 58.2424960332
        },
        "miles": {
            "estimated_diameter_min": 0.0161847486,
            "estimated_diameter_max": 0.036190198
        },
        "feet": {
            "estimated_diameter_min": 85.4555016254,
            "estimated_diameter_max": 191.0843106857
        }
    },
    "is_potentially_hazardous_asteroid": false,
    "close_approach_data": [
        {
            "close_approach_date": "2020-04-07",
            "close_approach_date_full": "2020-Apr-07 02:14",
            "epoch_date_close_approach": 1586225640000,
            "relative_velocity": {
                "kilometers_per_second": "7.6526471187",
                "kilometers_per_hour": "27549.5296274273",
                "miles_per_hour": "17118.2063398867"
            },
            "miss_distance": {
                "astronomical": "0.4985116941",
                "lunar": "193.9210490049",
                "kilometers": "74576287.607451567",
                "miles": "46339556.3254909446"
            },
            "orbiting_body": "Earth"
        },
        {
            "close_approach_date": "2020-09-20",
            "close_approach_date_full": "2020-Sep-20 22:48",
            "epoch_date_close_approach": 1600642080000,
            "relative_velocity": {
                "kilometers_per_second": "8.832892159",
                "kilometers_per_hour": "31798.4117722917",
                "miles_per_hour": "19758.2964703998"
            },
            "miss_distance": {
                "astronomical": "0.0615450693",
                "lunar": "23.9410319577",
                "kilometers": "9207011.276282391",
                "miles": "5720971.5221073558"
            },
            "orbiting_body": "Earth"
        },
        {
            "close_approach_date": "2025-06-10",
            "close_approach_date_full": "2025-Jun-10 15:53",
            "epoch_date_close_approach": 1749570780000,
            "relative_velocity": {
                "kilometers_per_second": "4.0254898842",
                "kilometers_per_hour": "14491.7635831563",
                "miles_per_hour": "9004.6183219895"
            },
            "miss_distance": {
                "astronomical": "0.145314102",
                "lunar": "56.527185678",
                "kilometers": "21738680.14016274",
                "miles": "13507789.474576212"
            },
            "orbiting_body": "Venus"
        },
        {
            "close_approach_date": "2078-05-07",
            "close_approach_date_full": "2078-May-07 04:30",
            "epoch_date_close_approach": 3419123400000,
            "relative_velocity": {
                "kilometers_per_second": "14.7640380795",
                "kilometers_per_hour": "53150.5370861708",
                "miles_per_hour": "33025.6767800154"
            },
            "miss_distance": {
                "astronomical": "0.1731055214",
                "lunar": "67.3380478246",
                "kilometers": "25896217.286679418",
                "miles": "16091163.2647872484"
            },
            "orbiting_body": "Earth"
        },
        {
            "close_approach_date": "2189-05-10",
            "close_approach_date_full": "2189-May-10 13:55",
            "epoch_date_close_approach": 6922245300000,
            "relative_velocity": {
                "kilometers_per_second": "13.8707387144",
                "kilometers_per_hour": "49934.6593717939",
                "miles_per_hour": "31027.4554302127"
            },
            "miss_distance": {
                "astronomical": "0.1474945681",
                "lunar": "57.3753869909",
                "kilometers": "22064873.224329947",
                "miles": "13710476.4583573886"
            },
            "orbiting_body": "Earth"
        }
    ],
    "orbital_data": {
        "orbit_id": "4",
        "orbit_determination_date": "2020-10-14 07:42:52",
        "first_observation_date": "2020-09-26",
        "last_observation_date": "2020-10-13",
        "data_arc_in_days": 17,
        "observations_used": 25,
        "orbit_uncertainty": "8",
        "minimum_orbit_intersection": ".0199776",
        "jupiter_tisserand_invariant": "4.737",
        "epoch_osculation": "2459124.5",
        "eccentricity": ".3732360669669562",
        "semi_major_axis": "1.372977790252257",
        "inclination": "6.263513839581237",
        "ascending_node_longitude": "14.35232437239596",
        "orbital_period": "587.6161113987172",
        "perihelion_distance": ".8605329597855219",
        "perihelion_argument": "287.4462513170955",
        "aphelion_distance": "1.885422620718992",
        "perihelion_time": "2459068.036485231884",
        "mean_anomaly": "34.59208303212996",
        "mean_motion": ".6126448765046334",
        "equinox": "J2000",
        "orbit_class": {
            "orbit_class_type": "APO",
            "orbit_class_description": "Near-Earth asteroid orbits which cross the Earth’s orbit similar to that of 1862 Apollo",
            "orbit_class_range": "a (semi-major axis) > 1.0 AU; q (perihelion) < 1.017 AU"
        }
    },
    "is_sentry_object": false
}